[{"OBJECT_NAME":"FENGYUN 1C DEB","OBJECT_ID":"1999-025DUR","EPOCH":"2026-03-13T18:28:21.811296","MEAN_MOTION":14.19003987,"ECCENTRICITY":0.0045967,"INCLINATION":98.6015,"RA_OF_ASC_NODE":95.3177,"ARG_OF_PERICENTER":113.6219,"MEAN_ANOMALY":246.9793,"EPHEMERIS_TYPE":0,"CLASSIFICATION_TYPE":"U","NORAD_CAT_ID":36216,"ELEMENT_SET_NO":999,"REV_AT_EPOCH":65663,"BSTAR":0.00032639468,"MEAN_MOTION_DOT":6.46e-6,"MEAN_MOTION_DDOT":0},{"OBJECT_NAME":"FENGYUN 1C DEB","OBJECT_ID":"1999-025DUT","EPOCH":"2026-03-14T07:55:01.519680","MEAN_MOTION":14.72419621,"ECCENTRICITY":0.00715866,"INCLINATION":99.0749,"RA_OF_ASC_NODE":289.8545,"ARG_OF_PERICENTER":11.9258,"MEAN_ANOMALY":348.362,"EPHEMERIS_TYPE":0,"CLASSIFICATION_TYPE":"U","NORAD_CAT_ID":36218,"ELEMENT_SET_NO":999,"REV_AT_EPOCH":60490,"BSTAR":0.00095923195,"MEAN_MOTION_DOT":6.269e-5,"MEAN_MOTION_DDOT":0},{"OBJECT_NAME":"FENGYUN 1C DEB","OBJECT_ID":"1999-025DUZ","EPOCH":"2026-03-12T21:57:24.347232","MEAN_MOTION":14.1281428,"ECCENTRICITY":0.011588,"INCLINATION":98.7642,"RA_OF_ASC_NODE":122.4384,"ARG_OF_PERICENTER":95.2515,"MEAN_ANOMALY":266.1892,"EPHEMERIS_TYPE":0,"CLASSIFICATION_TYPE":"U","NORAD_CAT_ID":36224,"ELEMENT_SET_NO":999,"REV_AT_EPOCH":65705,"BSTAR":0.00013321419,"MEAN_MOTION_DOT":2.22e-6,"MEAN_MOTION_DDOT":0},{"OBJECT_NAME":"FENGYUN 1C DEB","OBJECT_ID":"1999-025DVA","EPOCH":"2026-03-12T05:06:32.085504","MEAN_MOTION":15.15967892,"ECCENTRICITY":0.0034257,"INCLINATION":98.8179,"RA_OF_ASC_NODE":211.1643,"ARG_OF_PERICENTER":350.8484,"MEAN_ANOMALY":9.2116,"EPHEMERIS_TYPE":0,"CLASSIFICATION_TYPE":"U","NORAD_CAT_ID":36225,"ELEMENT_SET_NO":999,"REV_AT_EPOCH":68123,"BSTAR":0.0027713265,"MEAN_MOTION_DOT":0.00054249,"MEAN_MOTION_DDOT":0},{"OBJECT_NAME":"FENGYUN 1C DEB","OBJECT_ID":"1999-025DVB","EPOCH":"2026-03-10T07:58:56.026560","MEAN_MOTION":14.10788019,"ECCENTRICITY":0.00978549,"INCLINATION":98.6,"RA_OF_ASC_NODE":113.1345,"ARG_OF_PERICENTER":131.2912,"MEAN_ANOMALY":229.6737,"EPHEMERIS_TYPE":0,"CLASSIFICATION_TYPE":"U","NORAD_CAT_ID":36226,"ELEMENT_SET_NO":999,"REV_AT_EPOCH":64997,"BSTAR":0.0015924424,"MEAN_MOTION_DOT":2.94e-5,"MEAN_MOTION_DDOT":0},{"OBJECT_NAME":"FENGYUN 1C DEB","OBJECT_ID":"1999-025DVE","EPOCH":"2026-03-05T09:02:32.703360","MEAN_MOTION":14.07737688,"ECCENTRICITY":0.010358,"INCLINATION":100.9235,"RA_OF_ASC_NODE":306.2703,"ARG_OF_PERICENTER":267.8519,"MEAN_ANOMALY":91.0779,"EPHEMERIS_TYPE":0,"CLASSIFICATION_TYPE":"U","NORAD_CAT_ID":36229,"ELEMENT_SET_NO":999,"REV_AT_EPOCH":64418,"BSTAR":0.0021084,"MEAN_MOTION_DOT":3.688e-5,"MEAN_MOTION_DDOT":0},{"OBJECT_NAME":"FENGYUN 1C DEB","OBJECT_ID":"1999-025DVF","EPOCH":"2026-03-09T10:30:16.111008","MEAN_MOTION":13.75632683,"ECCENTRICITY":0.02128184,"INCLINATION":99.5166,"RA_OF_ASC_NODE":148.4764,"ARG_OF_PERICENTER":274.369,"MEAN_ANOMALY":83.3172,"EPHEMERIS_TYPE":0,"CLASSIFICATION_TYPE":"U","NORAD_CAT_ID":36230,"ELEMENT_SET_NO":999,"REV_AT_EPOCH":63078,"BSTAR":0.001957328,"MEAN_MOTION_DOT":2.181e-5,"MEAN_MOTION_DDOT":0},{"OBJECT_NAME":"FENGYUN 1C DEB","OBJECT_ID":"1999-025DVG","EPOCH":"2026-03-13T09:06:52.444224","MEAN_MOTION":14.12060101,"ECCENTRICITY":0.00619965,"INCLINATION":98.7021,"RA_OF_ASC_NODE":49.5677,"ARG_OF_PERICENTER":74.9169,"MEAN_ANOMALY":285.8852,"EPHEMERIS_TYPE":0,"CLASSIFICATION_TYPE":"U","NORAD_CAT_ID":36231,"ELEMENT_SET_NO":999,"REV_AT_EPOCH":86822,"BSTAR":0.00015764443,"MEAN_MOTION_DOT":2.52e-6,"MEAN_MOTION_DDOT":0},{"OBJECT_NAME":"FENGYUN 1C DEB","OBJECT_ID":"1999-025DVK","EPOCH":"2026-02-26T10:31:57.121248","MEAN_MOTION":13.45718488,"ECCENTRICITY":0.031776,"INCLINATION":98.9899,"RA_OF_ASC_NODE":124.5694,"ARG_OF_PERICENTER":196.8815,"MEAN_ANOMALY":162.155,"EPHEMERIS_TYPE":0,"CLASSIFICATION_TYPE":"U","NORAD_CAT_ID":36234,"ELEMENT_SET_NO":999,"REV_AT_EPOCH":88965,"BSTAR":0.00046959,"MEAN_MOTION_DOT":3.41e-6,"MEAN_MOTION_DDOT":0},{"OBJECT_NAME":"FENGYUN 1C DEB","OBJECT_ID":"1999-025DVM","EPOCH":"2026-02-27T07:44:55.135968","MEAN_MOTION":13.82020311,"ECCENTRICITY":0.01506517,"INCLINATION":98.838,"RA_OF_ASC_NODE":99.0126,"ARG_OF_PERICENTER":151.2267,"MEAN_ANOMALY":209.7303,"EPHEMERIS_TYPE":0,"CLASSIFICATION_TYPE":"U","NORAD_CAT_ID":36236,"ELEMENT_SET_NO":999,"REV_AT_EPOCH":60805,"BSTAR":0.00030510037,"MEAN_MOTION_DOT":3.18e-6,"MEAN_MOTION_DDOT":0},{"OBJECT_NAME":"FENGYUN 1C DEB","OBJECT_ID":"1999-025DVP","EPOCH":"2026-03-13T08:58:35.799744","MEAN_MOTION":14.12422245,"ECCENTRICITY":0.00216855,"INCLINATION":98.6612,"RA_OF_ASC_NODE":46.7316,"ARG_OF_PERICENTER":25.5486,"MEAN_ANOMALY":334.6753,"EPHEMERIS_TYPE":0,"CLASSIFICATION_TYPE":"U","NORAD_CAT_ID":36238,"ELEMENT_SET_NO":999,"REV_AT_EPOCH":88297,"BSTAR":9.3432377e-5,"MEAN_MOTION_DOT":1.3e-6,"MEAN_MOTION_DDOT":0},{"OBJECT_NAME":"FENGYUN 1C DEB","OBJECT_ID":"1999-025DVV","EPOCH":"2026-03-13T18:16:57.372960","MEAN_MOTION":14.25752713,"ECCENTRICITY":0.0047622,"INCLINATION":98.9242,"RA_OF_ASC_NODE":189.9752,"ARG_OF_PERICENTER":25.0928,"MEAN_ANOMALY":335.2551,"EPHEMERIS_TYPE":0,"CLASSIFICATION_TYPE":"U","NORAD_CAT_ID":36244,"ELEMENT_SET_NO":999,"REV_AT_EPOCH":93275,"BSTAR":0.0015562942,"MEAN_MOTION_DOT":3.696e-5,"MEAN_MOTION_DDOT":0},{"OBJECT_NAME":"FENGYUN 1C DEB","OBJECT_ID":"1999-025DVY","EPOCH":"2026-03-14T11:56:02.950368","MEAN_MOTION":14.33907255,"ECCENTRICITY":0.01870352,"INCLINATION":98.2657,"RA_OF_ASC_NODE":87.5695,"ARG_OF_PERICENTER":119.3411,"MEAN_ANOMALY":242.6602,"EPHEMERIS_TYPE":0,"CLASSIFICATION_TYPE":"U","NORAD_CAT_ID":36247,"ELEMENT_SET_NO":999,"REV_AT_EPOCH":71577,"BSTAR":0.00042793438,"MEAN_MOTION_DOT":1.406e-5,"MEAN_MOTION_DDOT":0},{"OBJECT_NAME":"FENGYUN 1C DEB","OBJECT_ID":"1999-025DWK","EPOCH":"2026-03-14T22:15:38.629152","MEAN_MOTION":14.75432664,"ECCENTRICITY":0.01710108,"INCLINATION":99.074,"RA_OF_ASC_NODE":119.6401,"ARG_OF_PERICENTER":198.2622,"MEAN_ANOMALY":161.2395,"EPHEMERIS_TYPE":0,"CLASSIFICATION_TYPE":"U","NORAD_CAT_ID":36258,"ELEMENT_SET_NO":999,"REV_AT_EPOCH":92181,"BSTAR":0.00034041759,"MEAN_MOTION_DOT":2.859e-5,"MEAN_MOTION_DDOT":0},{"OBJECT_NAME":"FENGYUN 1C DEB","OBJECT_ID":"1999-025DWM","EPOCH":"2026-03-14T11:22:16.446144","MEAN_MOTION":14.15449732,"ECCENTRICITY":0.00158293,"INCLINATION":98.6652,"RA_OF_ASC_NODE":78.0444,"ARG_OF_PERICENTER":352.3046,"MEAN_ANOMALY":7.7883,"EPHEMERIS_TYPE":0,"CLASSIFICATION_TYPE":"U","NORAD_CAT_ID":36260,"ELEMENT_SET_NO":999,"REV_AT_EPOCH":89106,"BSTAR":0.00020922399,"MEAN_MOTION_DOT":3.66e-6,"MEAN_MOTION_DDOT":0},{"OBJECT_NAME":"FENGYUN 1C DEB","OBJECT_ID":"1999-025DWP","EPOCH":"2026-03-13T22:09:34.130016","MEAN_MOTION":14.27946072,"ECCENTRICITY":0.00611117,"INCLINATION":98.9525,"RA_OF_ASC_NODE":320.7455,"ARG_OF_PERICENTER":11.9052,"MEAN_ANOMALY":348.3556,"EPHEMERIS_TYPE":0,"CLASSIFICATION_TYPE":"U","NORAD_CAT_ID":36262,"ELEMENT_SET_NO":999,"REV_AT_EPOCH":90798,"BSTAR":0.0002627293,"MEAN_MOTION_DOT":6.17e-6,"MEAN_MOTION_DDOT":0},{"OBJECT_NAME":"FENGYUN 1C DEB","OBJECT_ID":"1999-025DWQ","EPOCH":"2026-03-14T16:00:31.092192","MEAN_MOTION":14.46938111,"ECCENTRICITY":0.00371359,"INCLINATION":98.9956,"RA_OF_ASC_NODE":325.3373,"ARG_OF_PERICENTER":351.262,"MEAN_ANOMALY":8.792,"EPHEMERIS_TYPE":0,"CLASSIFICATION_TYPE":"U","NORAD_CAT_ID":36263,"ELEMENT_SET_NO":999,"REV_AT_EPOCH":89314,"BSTAR":0.0022319876,"MEAN_MOTION_DOT":8.136e-5,"MEAN_MOTION_DDOT":0},{"OBJECT_NAME":"FENGYUN 1C DEB","OBJECT_ID":"1999-025DWU","EPOCH":"2026-03-11T18:55:54.232896","MEAN_MOTION":14.09525536,"ECCENTRICITY":0.0126853,"INCLINATION":98.5658,"RA_OF_ASC_NODE":18.8161,"ARG_OF_PERICENTER":318.0182,"MEAN_ANOMALY":70.4798,"EPHEMERIS_TYPE":0,"CLASSIFICATION_TYPE":"U","NORAD_CAT_ID":36267,"ELEMENT_SET_NO":999,"REV_AT_EPOCH":87784,"BSTAR":0.0015759169,"MEAN_MOTION_DOT":2.927e-5,"MEAN_MOTION_DDOT":0},{"OBJECT_NAME":"FENGYUN 1C DEB","OBJECT_ID":"1999-025DWW","EPOCH":"2026-03-12T19:33:26.829504","MEAN_MOTION":14.27503718,"ECCENTRICITY":0.02340717,"INCLINATION":99.12,"RA_OF_ASC_NODE":22.6359,"ARG_OF_PERICENTER":20.1412,"MEAN_ANOMALY":340.8818,"EPHEMERIS_TYPE":0,"CLASSIFICATION_TYPE":"U","NORAD_CAT_ID":36269,"ELEMENT_SET_NO":999,"REV_AT_EPOCH":89001,"BSTAR":0.0013719344,"MEAN_MOTION_DOT":4.462e-5,"MEAN_MOTION_DDOT":0},{"OBJECT_NAME":"FENGYUN 1C DEB","OBJECT_ID":"1999-025DXB","EPOCH":"2026-02-26T11:13:57.182016","MEAN_MOTION":14.24582007,"ECCENTRICITY":0.0055806,"INCLINATION":99.1337,"RA_OF_ASC_NODE":139.5931,"ARG_OF_PERICENTER":16.5702,"MEAN_ANOMALY":49.0607,"EPHEMERIS_TYPE":0,"CLASSIFICATION_TYPE":"U","NORAD_CAT_ID":36274,"ELEMENT_SET_NO":999,"REV_AT_EPOCH":64063,"BSTAR":0.0022992,"MEAN_MOTION_DOT":5.381e-5,"MEAN_MOTION_DDOT":0},{"OBJECT_NAME":"FENGYUN 1C DEB","OBJECT_ID":"1999-025DXF","EPOCH":"2026-02-28T17:44:09.244032","MEAN_MOTION":14.17536715,"ECCENTRICITY":0.00624036,"INCLINATION":99.1263,"RA_OF_ASC_NODE":345.109,"ARG_OF_PERICENTER":69.0257,"MEAN_ANOMALY":291.7579,"EPHEMERIS_TYPE":0,"CLASSIFICATION_TYPE":"U","NORAD_CAT_ID":36278,"ELEMENT_SET_NO":999,"REV_AT_EPOCH":94581,"BSTAR":0.00044643264,"MEAN_MOTION_DOT":8.77e-6,"MEAN_MOTION_DDOT":0},{"OBJECT_NAME":"FENGYUN 1C DEB","OBJECT_ID":"1999-025DXG","EPOCH":"2026-03-10T17:08:41.186112","MEAN_MOTION":14.14784994,"ECCENTRICITY":0.0062161,"INCLINATION":98.5736,"RA_OF_ASC_NODE":49.1879,"ARG_OF_PERICENTER":161.4691,"MEAN_ANOMALY":198.8767,"EPHEMERIS_TYPE":0,"CLASSIFICATION_TYPE":"U","NORAD_CAT_ID":36279,"ELEMENT_SET_NO":999,"REV_AT_EPOCH":90283,"BSTAR":0.00013815095,"MEAN_MOTION_DOT":2.3e-6,"MEAN_MOTION_DDOT":0},{"OBJECT_NAME":"FENGYUN 1C DEB","OBJECT_ID":"1999-025DXH","EPOCH":"2026-03-14T21:01:36.257376","MEAN_MOTION":14.1006552,"ECCENTRICITY":0.00640683,"INCLINATION":98.7569,"RA_OF_ASC_NODE":105.4622,"ARG_OF_PERICENTER":163.3487,"MEAN_ANOMALY":14.3084,"EPHEMERIS_TYPE":0,"CLASSIFICATION_TYPE":"U","NORAD_CAT_ID":36280,"ELEMENT_SET_NO":999,"REV_AT_EPOCH":87652,"BSTAR":0.00082861036,"MEAN_MOTION_DOT":1.449e-5,"MEAN_MOTION_DDOT":0}]
